algorithm,apogee,argOfPerigee,bStar,classificationMarking,elset_created_at,elset_created_by,dataMode,eccentricity,idElset,idOnOrbit,inclination,line1,line2,meanAnomaly,meanMotion,meanMotionDDot,meanMotionDot,origNetwork,perigee,period,raan,revNo,satNo,semiMajorAxis,source,__START_AT,__END_AT,COUNTRY,LAUNCH,LAUNCH_NUM,LAUNCH_PIECE,NORAD_CAT_ID,OBJECT_ID,OBJECT_NAME,OBJECT_NUMBER,OBJECT_TYPE,RCS_SIZE,SATNAME,SITE,satcat_current_fetch_date
SGP4,6952.51,266.7801,-7.0276E-6,U,2024-01-31T23:05:17.872Z,system.ob-ingest,REAL,3.342E-4,c1750566-f3d1-434e-a3a9-5a71b5a251db,55958,70.0001,1 55958U 23037AW  24031.42109787 -.00000177 +00000+0 -70276-5 0 99997,2 55958  70.0001  41.5486 0003342 266.7801  93.2976 14.98331957049393,93.2976,14.98331957,0.0,-1.77E-6,OPS1,6947.864,96.107,41.5486,4939,55958,6950.187,18th SPCS,2024-01-31T10:06:22.855968Z,2024-02-01T03:43:51.813120Z,US,2023-03-17,37,AW,55958,2023-037AW,STARLINK-5928,55958,PAYLOAD,LARGE,STARLINK-5928,AFWTR,2024-08-21
SGP4,6951.852,255.759,-1.2093E-5,U,2024-01-31T23:05:17.682Z,system.ob-ingest,REAL,2.39E-4,6980c13b-9563-4cf3-a209-29bdbe2d9393,56473,69.9989,1 56473U 23064AB  24031.58220592 -.00000237 +00000+0 -12093-4 0 99994,2 56473  69.9989 261.1509 0002390 255.7590 104.3304 14.98330639040687,104.3304,14.98330639,0.0,-2.37E-6,OPS1,6948.53,96.107,261.1509,4068,56473,6950.191,18th SPCS,2024-01-31T13:58:22.591488Z,2024-02-01T01:11:19.170816Z,US,2023-05-10,64,AB,56473,2023-064AB,STARLINK-5486,56473,PAYLOAD,LARGE,STARLINK-5486,AFWTR,2024-08-21
SGP4,6952.167,269.1624,2.7564E-5,U,2024-02-01T07:05:15.033Z,system.ob-ingest,REAL,2.835E-4,fb5fc6e4-b010-48e9-aee4-3561f4e3e097,56488,69.9991,1 56488U 23064AS  24031.98688123 +.00000236 +00000+0 +27564-4 0 99998,2 56488  69.9991 240.2769 0002835 269.1624  90.9211 14.98328840041592,90.9211,14.9832884,0.0,2.36E-6,OPS1,6948.226,96.107,240.2769,4159,56488,6950.196,18th SPCS,2024-01-31T23:41:06.538272Z,2024-02-01T23:43:07.779072Z,US,2023-05-10,64,AS,56488,2023-064AS,STARLINK-6204,56488,PAYLOAD,LARGE,STARLINK-6204,AFWTR,2024-08-21
SGP4,6938.198,271.8256,0.0019423,U,2024-02-01T05:05:15.485Z,system.ob-ingest,REAL,1.469E-4,382d5bea-39c6-48b6-9526-1399dddc3937,56692,43.0023,1 56692U 23067E   24031.71778390 +.00026140 +00000+0 +19423-2 0 99990,2 56692  43.0023 127.7074 0001469 271.8256  88.2418 15.02548068039003,88.2418,15.02548068,0.0,2.614E-4,OPS1,6936.16,95.837,127.7074,3900,56692,6937.179,18th SPCS,2024-01-31T17:13:36.528960Z,2024-02-01T10:46:37.186464Z,US,2023-05-19,67,E,56692,2023-067E,STARLINK-30036,56692,PAYLOAD,LARGE,STARLINK-30036,AFETR,2024-08-21
SGP4,6778.263,276.2206,-0.0040218,U,2024-01-31T23:05:17.918Z,system.ob-ingest,REAL,3.402E-4,7f08c8bb-ffd8-495f-b43f-4412904496ad,56808,69.9977,1 56808U 23078AT  24031.91667824 -.00276563 +00000+0 -40218-2 0 99996,2 56808  69.9977  82.3712 0003402 276.2206 219.3299 15.56491350038862,219.3299,15.5649135,0.0,-0.00276563,OPS1,6773.653,92.516,82.3712,3886,56808,6775.958,18th SPCS,2024-01-31T22:00:00.999936Z,2024-02-01T14:00:01.000224Z,US,2023-05-31,78,AT,56808,2023-078AT,STARLINK-6042,56808,PAYLOAD,LARGE,STARLINK-6042,AFWTR,2024-08-21
SGP4,6938.038,247.3378,6.6215E-4,U,2024-02-01T05:05:15.910Z,system.ob-ingest,REAL,1.008E-4,ac937db4-8c43-4ed7-870d-7d51dd290e93,56912,43.0038,1 56912U 23083AN  24031.90280574 +.00008743 +00000+0 +66215-3 0 99997,2 56912  43.0038 280.8596 0001008 247.3378 112.7358 15.02496201036325,112.7358,15.02496201,0.0,8.743E-5,OPS1,6936.64,95.841,280.8596,3632,56912,6937.339,18th SPCS,2024-01-31T21:40:02.415936Z,2024-02-01T00:51:28.924416Z,US,2023-06-12,83,AN,56912,2023-083AN,STARLINK-5805,56912,PAYLOAD,LARGE,STARLINK-5805,AFETR,2024-08-21
SGP4,6937.978,261.5956,-1.0411E-5,U,2024-01-31T23:05:17.712Z,system.ob-ingest,REAL,1.09E-4,52323d8d-09c0-4cf8-8de6-e78fcac54e48,57056,43.0038,1 57056U 23088J   24031.82439676 -.00000344 +00000+0 -10411-4 0 99991,2 57056  43.0038 319.7751 0001090 261.5956  98.4763 15.02534429033963,98.4763,15.02534429,0.0,-3.44E-6,OPS1,6936.465,95.838,319.7751,3396,57056,6937.221,18th SPCS,2024-01-31T19:47:07.880064Z,2024-02-01T06:57:13.702752Z,US,2023-06-22,88,J,57056,2023-088J,STARLINK-6353,57056,PAYLOAD,LARGE,STARLINK-6353,AFWTR,2024-08-21
SGP4,6938.175,273.3387,0.001821,U,2024-01-31T23:05:17.953Z,system.ob-ingest,REAL,1.532E-4,aa23aeae-2770-4724-889b-4cba8693c7b9,57152,43.0035,1 57152U 23090BD  24031.67258924 +.00024503 +00000+0 +18210-2 0 99993,2 57152  43.0035 114.8198 0001532 273.3387  86.7280 15.02569726033890,86.728,15.02569726,0.0,2.4503E-4,OPS1,6936.05,95.836,114.8198,3389,57152,6937.113,18th SPCS,2024-01-31T16:08:31.710336Z,2024-02-01T11:17:16.677888Z,US,2023-06-23,90,BD,57152,2023-090BD,STARLINK-6164,57152,PAYLOAD,LARGE,STARLINK-6164,AFETR,2024-08-21
SGP4,6937.937,266.7206,9.6768E-4,U,2024-01-31T23:05:17.710Z,system.ob-ingest,REAL,1.118E-4,d1411059-b9f5-4940-9a37-42aa7abc9af6,57356,43.0034,1 57356U 23099AE  24031.60671355 +.00012898 +00000+0 +96768-3 0 99997,2 57356  43.0034  89.7772 0001118 266.7206  93.3509 15.02553760031368,93.3509,15.0255376,0.0,1.2898E-4,OPS1,6936.386,95.837,89.7772,3136,57356,6937.162,18th SPCS,2024-01-31T14:33:40.050720Z,2024-02-01T09:42:24.394464Z,US,2023-07-16,99,AE,57356,2023-099AE,STARLINK-6355,57356,PAYLOAD,LARGE,STARLINK-6355,AFETR,2024-08-21
SGP4,6937.948,278.5375,-1.2963E-4,U,2024-02-01T05:05:15.364Z,system.ob-ingest,REAL,1.089E-4,06bb6d8e-2d1f-4726-b58c-3d73313ca2ff,57648,43.004,1 57648U 23122S   24031.85344579 -.00001955 +00000+0 -12963-3 0 99999,2 57648  43.0040 306.4705 0001089 278.5375  81.5344 15.02543653026684,81.5344,15.02543653,0.0,-1.955E-5,OPS1,6936.438,95.837,306.4705,2668,57648,6937.193,18th SPCS,2024-01-31T20:28:57.716256Z,2024-02-01T01:16:08.461344Z,US,2023-08-17,122,S,57648,2023-122S,STARLINK-30243,57648,PAYLOAD,LARGE,STARLINK-30243,AFETR,2024-08-21
SGP4,6888.716,100.9748,1.1523E-4,U,2024-01-30T23:05:14.623Z,system.ob-ingest,REAL,1.31E-4,5683576b-1da4-48e9-ae21-75c2dc8b3a2a,57664,53.0555,1 57664U 23124B   24030.78391212 +.00002105 +00000+0 +11523-3 0 99993,2 57664  53.0555 176.2463 0001310 100.9748 259.1394 15.18730337025880,259.1394,15.18730337,0.0,2.105E-5,OPS1,6886.911,94.816,176.2463,2588,57664,6887.814,18th SPCS,2024-01-30T18:48:50.007168Z,2024-02-02T08:24:38.416896Z,US,2023-08-22,124,B,57664,2023-124B,STARLINK-30302,57664,PAYLOAD,LARGE,STARLINK-30302,AFWTR,2024-08-21
SGP4,6888.873,100.8346,4.7647E-4,U,2024-01-31T23:05:17.856Z,system.ob-ingest,REAL,1.517E-4,0f52cd72-cc40-4e87-bec6-8127792ca140,57670,53.0565,1 57670U 23124H   24031.80830805 +.00009709 +00000+0 +47647-3 0 99993,2 57670  53.0565 170.5640 0001517 100.8346 259.2819 15.18725591025704,259.2819,15.18725591,0.0,9.709E-5,OPS1,6886.783,94.816,170.564,2570,57670,6887.828,18th SPCS,2024-01-31T19:23:57.815520Z,2024-02-01T09:36:51.190272Z,US,2023-08-22,124,H,57670,2023-124H,STARLINK-30322,57670,PAYLOAD,LARGE,STARLINK-30322,AFWTR,2024-08-21
SGP4,6937.992,257.7889,-3.043E-4,U,2024-02-01T05:05:15.423Z,system.ob-ingest,REAL,1.078E-4,bb8d30b9-5ecc-4201-98b0-b27037b74e5e,57702,43.0018,1 57702U 23129E   24031.88953236 -.00004311 +00000+0 -30430-3 0 99994,2 57702  43.0018 332.6206 0001078 257.7889 102.2832 15.02527128025157,102.2832,15.02527128,0.0,-4.311E-5,OPS1,6936.496,95.839,332.6206,2515,57702,6937.244,18th SPCS,2024-01-31T21:20:55.595904Z,2024-02-01T05:19:33.986496Z,US,2023-08-27,129,E,57702,2023-129E,STARLINK-30333,57702,PAYLOAD,LARGE,STARLINK-30333,AFETR,2024-08-21
SGP4,6937.384,230.6785,0.002051,U,2024-01-31T23:05:18.098Z,system.ob-ingest,REAL,2.52E-5,35f6cb46-981e-44a9-82ad-149563d428d5,57736,43.0028,1 57736U 23131E   24031.17484173 +.00027613 +00000+0 +20510-2 0 99990,2 57736  43.0028  27.3278 0000252 230.6785 129.4035 15.02538509024329,129.4035,15.02538509,0.0,2.7613E-4,OPS1,6937.034,95.838,27.3278,2432,57736,6937.209,18th SPCS,2024-01-31T04:11:46.325472Z,2024-02-01T02:31:57.055008Z,US,2023-09-01,131,E,57736,2023-131E,STARLINK-30352,57736,PAYLOAD,LARGE,STARLINK-30352,AFETR,2024-08-21
SGP4,6937.833,276.6654,0.0013595,U,2024-02-01T05:05:15.363Z,system.ob-ingest,REAL,9.7E-5,b991a694-6538-430f-8964-ff9061fc8cfc,57811,43.0025,1 57811U 23138D   24031.60894765 +.00018218 +00000+0 +13595-2 0 99997,2 57811  43.0025  89.8706 0000970 276.6654  83.4078 15.02554289023172,83.4078,15.02554289,0.0,1.8218E-4,OPS1,6936.487,95.837,89.8706,2317,57811,6937.16,18th SPCS,2024-01-31T14:36:53.076960Z,2024-02-01T09:45:37.482048Z,US,2023-09-09,138,D,57811,2023-138D,STARLINK-30379,57811,PAYLOAD,LARGE,STARLINK-30379,AFETR,2024-08-21
SGP4,6938.138,271.0276,6.4273E-4,U,2024-02-01T05:05:15.379Z,system.ob-ingest,REAL,1.328E-4,8fb49f4e-40c9-4582-bab2-79a26a275d07,57827,43.0024,1 57827U 23138V   24031.63546323 +.00008489 +00000+0 +64273-3 0 99990,2 57827  43.0024  89.2072 0001328 271.0276  89.0414 15.02536083023173,89.0414,15.02536083,0.0,8.489E-5,OPS1,6936.295,95.838,89.2072,2317,57827,6937.216,18th SPCS,2024-01-31T15:15:04.023072Z,2024-02-01T10:23:48.583680Z,US,2023-09-09,138,V,57827,2023-138V,STARLINK-30402,57827,PAYLOAD,LARGE,STARLINK-30402,AFETR,2024-08-21
SGP4,6901.404,339.6152,-0.0052572,U,2024-02-01T05:05:15.748Z,system.ob-ingest,REAL,3.07E-4,68894ee1-ceac-4327-8dca-7e607d694504,57993,43.0002,1 57993U 23153C   24031.91193507 -.00098674 +00000+0 -52572-2 0 99999,2 57993  43.0002 281.4060 0003070 339.6152  20.4572 15.14943851019375,20.4572,15.14943851,0.0,-9.8674E-4,OPS1,6897.168,95.053,281.406,1937,57993,6899.286,18th SPCS,2024-01-31T21:53:11.190048Z,2024-02-01T01:03:11.054016Z,US,2023-10-05,153,C,57993,2023-153C,STARLINK-30536,57993,PAYLOAD,LARGE,STARLINK-30536,AFETR,2024-08-21
